start=new Date('2023-04-26T00:00:00.000Z').valueOf();
sats=[{"EPOCH":"2023-04-25T13:21:40.747104","MEAN_MOTION_DOT":"0.00016225","TIME_SYSTEM":"UTC","RA_OF_ASC_NODE":"306.3561","APOAPSIS":"548.064","PERIOD":"95.594","SEMIMAJOR_AXIS":"6925.439","MEAN_ANOMALY":"261.5134","FILE":"3894092","TLE_LINE1":"1 47883U 21021Z   23115.55672161  .00016225  00000-0  11065-2 0  9992","OBJECT_NAME":"STARLINK-2342","ELEMENT_SET_NO":"999","MEAN_MOTION":"15.06370394","ARG_OF_PERICENTER":"98.5979","LAUNCH_DATE":"2021-03-14","PERIAPSIS":"546.545","OBJECT_TYPE":"PAYLOAD","RCS_SIZE":"LARGE","OBJECT_ID":"2021-021Z","INCLINATION":"53.0540","MEAN_MOTION_DDOT":"0.0000000000000","GP_ID":"230740296","BSTAR":"0.00110650000000","ECCENTRICITY":"0.00010970","NORAD_CAT_ID":"47883","REV_AT_EPOCH":"11816","DECAY_DATE":null,"REF_FRAME":"TEME","COUNTRY_CODE":"US","SITE":"AFETR","MEAN_ELEMENT_THEORY":"SGP4","EPHEMERIS_TYPE":"0","CLASSIFICATION_TYPE":"U","CENTER_NAME":"EARTH","TLE_LINE2":"2 47883  53.0540 306.3561 0001097  98.5979 261.5134 15.06370394118164"},{"FILE":"3894092","MEAN_MOTION":"15.06379641","OBJECT_NAME":"STARLINK-2343","ELEMENT_SET_NO":"999","TLE_LINE1":"1 47884U 21021AA  23115.53966661 -.00001646  00000-0 -91699-4 0  9998","TIME_SYSTEM":"UTC","MEAN_MOTION_DOT":"-0.00001646","EPOCH":"2023-04-25T12:57:07.195104","APOAPSIS":"548.121","MEAN_ANOMALY":"241.9533","SEMIMAJOR_AXIS":"6925.411","PERIOD":"95.593","RA_OF_ASC_NODE":"311.4338","NORAD_CAT_ID":"47884","REV_AT_EPOCH":"11791","ECCENTRICITY":"0.00012200","BSTAR":"-0.00009169900000","SITE":"AFETR","TLE_LINE2":"2 47884  53.0537 311.4338 0001220 118.1579 241.9533 15.06379641117914","CENTER_NAME":"EARTH","EPHEMERIS_TYPE":"0","MEAN_ELEMENT_THEORY":"SGP4","CLASSIFICATION_TYPE":"U","COUNTRY_CODE":"US","REF_FRAME":"TEME","DECAY_DATE":null,"LAUNCH_DATE":"2021-03-14","ARG_OF_PERICENTER":"118.1579","PERIAPSIS":"546.431","MEAN_MOTION_DDOT":"0.0000000000000","GP_ID":"230741047","OBJECT_ID":"2021-021AA","RCS_SIZE":"LARGE","OBJECT_TYPE":"PAYLOAD","INCLINATION":"53.0537"},{"LAUNCH_DATE":"2021-03-14","ARG_OF_PERICENTER":"100.2141","PERIAPSIS":"546.350","MEAN_MOTION_DDOT":"0.0000000000000","GP_ID":"230741298","RCS_SIZE":"LARGE","OBJECT_ID":"2021-021AB","OBJECT_TYPE":"PAYLOAD","INCLINATION":"53.0536","NORAD_CAT_ID":"47885","REV_AT_EPOCH":"11793","BSTAR":"0.00186620000000","ECCENTRICITY":"0.00012460","SITE":"AFETR","CENTER_NAME":"EARTH","TLE_LINE2":"2 47885  53.0536 318.5456 0001246 100.2141 259.8989 15.06400280117937","EPHEMERIS_TYPE":"0","MEAN_ELEMENT_THEORY":"SGP4","CLASSIFICATION_TYPE":"U","COUNTRY_CODE":"US","DECAY_DATE":null,"REF_FRAME":"TEME","TIME_SYSTEM":"UTC","MEAN_MOTION_DOT":"0.00027625","EPOCH":"2023-04-25T01:39:42.016320","APOAPSIS":"548.076","MEAN_ANOMALY":"259.8989","SEMIMAJOR_AXIS":"6925.348","PERIOD":"95.592","RA_OF_ASC_NODE":"318.5456","FILE":"3894092","MEAN_MOTION":"15.06400280","OBJECT_NAME":"STARLINK-2344","ELEMENT_SET_NO":"999","TLE_LINE1":"1 47885U 21021AB  23115.06923630  .00027625  00000-0  18662-2 0  9996"},{"MEAN_MOTION":"15.24136583","OBJECT_NAME":"STARLINK-2345","ELEMENT_SET_NO":"999","TLE_LINE1":"1 47886U 21021AC  23115.51970370  .00054133  00000-0  21942-2 0  9999","FILE":"3894092","APOAPSIS":"496.717","MEAN_ANOMALY":"147.1474","SEMIMAJOR_AXIS":"6871.516","PERIOD":"94.480","RA_OF_ASC_NODE":"298.0005","TIME_SYSTEM":"UTC","MEAN_MOTION_DOT":"0.00054133","EPOCH":"2023-04-25T12:28:22.399680","SITE":"AFETR","TLE_LINE2":"2 47886  53.0581 298.0005 0004855 212.9221 147.1474 15.24136583118110","CENTER_NAME":"EARTH","CLASSIFICATION_TYPE":"U","MEAN_ELEMENT_THEORY":"SGP4","EPHEMERIS_TYPE":"0","COUNTRY_CODE":"US","DECAY_DATE":null,"REF_FRAME":"TEME","NORAD_CAT_ID":"47886","REV_AT_EPOCH":"11811","ECCENTRICITY":"0.00048550","BSTAR":"0.00219420000000","MEAN_MOTION_DDOT":"0.0000000000000","GP_ID":"230742049","RCS_SIZE":"LARGE","OBJECT_ID":"2021-021AC","OBJECT_TYPE":"PAYLOAD","INCLINATION":"53.0581","LAUNCH_DATE":"2021-03-14","ARG_OF_PERICENTER":"212.9221","PERIAPSIS":"490.045"},{"PERIAPSIS":"546.535","ARG_OF_PERICENTER":"81.8692","LAUNCH_DATE":"2021-03-14","INCLINATION":"53.0542","OBJECT_TYPE":"PAYLOAD","OBJECT_ID":"2021-021AD","RCS_SIZE":"LARGE","GP_ID":"230740797","MEAN_MOTION_DDOT":"0.0000000000000","ECCENTRICITY":"0.00010400","BSTAR":"0.00116430000000","REV_AT_EPOCH":"11792","NORAD_CAT_ID":"47887","REF_FRAME":"TEME","DECAY_DATE":null,"COUNTRY_CODE":"US","MEAN_ELEMENT_THEORY":"SGP4","EPHEMERIS_TYPE":"0","CLASSIFICATION_TYPE":"U","CENTER_NAME":"EARTH","TLE_LINE2":"2 47887  53.0542 311.3503 0001040  81.8692 278.2415 15.06386545117922","SITE":"AFETR","EPOCH":"2023-04-25T13:23:39.721632","MEAN_MOTION_DOT":"0.00017097","TIME_SYSTEM":"UTC","RA_OF_ASC_NODE":"311.3503","PERIOD":"95.593","SEMIMAJOR_AXIS":"6925.390","MEAN_ANOMALY":"278.2415","APOAPSIS":"547.975","FILE":"3894092","TLE_LINE1":"1 47887U 21021AD  23115.55809863  .00017097  00000-0  11643-2 0  9997","OBJECT_NAME":"STARLINK-2346","ELEMENT_SET_NO":"999","MEAN_MOTION":"15.06386545"},{"RA_OF_ASC_NODE":"301.5460","APOAPSIS":"547.393","SEMIMAJOR_AXIS":"6925.350","MEAN_ANOMALY":"343.2902","PERIOD":"95.592","EPOCH":"2023-04-25T12:21:17.162208","TIME_SYSTEM":"UTC","MEAN_MOTION_DOT":"0.00007818","ELEMENT_SET_NO":"999","OBJECT_NAME":"STARLINK-2348","TLE_LINE1":"1 47888U 21021AE  23115.51478197  .00007818  00000-0  54313-3 0  9998","MEAN_MOTION":"15.06399492","FILE":"3894092","RCS_SIZE":"LARGE","OBJECT_ID":"2021-021AE","OBJECT_TYPE":"PAYLOAD","INCLINATION":"53.0549","MEAN_MOTION_DDOT":"0.0000000000000","GP_ID":"230740547","LAUNCH_DATE":"2021-03-14","ARG_OF_PERICENTER":"16.8096","PERIAPSIS":"547.037","COUNTRY_CODE":"US","REF_FRAME":"TEME","DECAY_DATE":null,"SITE":"AFETR","CENTER_NAME":"EARTH","TLE_LINE2":"2 47888  53.0549 301.5460 0000257  16.8096 343.2902 15.06399492118063","EPHEMERIS_TYPE":"0","MEAN_ELEMENT_THEORY":"SGP4","CLASSIFICATION_TYPE":"U","ECCENTRICITY":"0.00002570","BSTAR":"0.00054313000000","NORAD_CAT_ID":"47888","REV_AT_EPOCH":"11806"},{"APOAPSIS":"547.753","PERIOD":"95.592","SEMIMAJOR_AXIS":"6925.338","MEAN_ANOMALY":"345.3230","RA_OF_ASC_NODE":"301.4950","MEAN_MOTION_DOT":"0.00016308","TIME_SYSTEM":"UTC","EPOCH":"2023-04-25T12:37:12.270144","MEAN_MOTION":"15.06403299","TLE_LINE1":"1 47889U 21021AF  23115.52583646  .00016308  00000-0  11111-2 0  9998","ELEMENT_SET_NO":"999","OBJECT_NAME":"STARLINK-2349","FILE":"3894092","MEAN_MOTION_DDOT":"0.0000000000000","GP_ID":"230741799","OBJECT_TYPE":"PAYLOAD","RCS_SIZE":"LARGE","OBJECT_ID":"2021-021AF","INCLINATION":"53.0542","ARG_OF_PERICENTER":"14.7782","LAUNCH_DATE":"2021-03-14","PERIAPSIS":"546.654","SITE":"AFETR","CLASSIFICATION_TYPE":"U","EPHEMERIS_TYPE":"0","MEAN_ELEMENT_THEORY":"SGP4","TLE_LINE2":"2 47889  53.0542 301.4950 0000794  14.7782 345.3230 15.06403299118119","CENTER_NAME":"EARTH","REF_FRAME":"TEME","DECAY_DATE":null,"COUNTRY_CODE":"US","NORAD_CAT_ID":"47889","REV_AT_EPOCH":"11811","ECCENTRICITY":"0.00007940","BSTAR":"0.00111110000000"},{"RA_OF_ASC_NODE":"313.2541","MEAN_ANOMALY":"271.8573","SEMIMAJOR_AXIS":"6925.303","PERIOD":"95.591","APOAPSIS":"547.838","EPOCH":"2023-04-25T03:13:16.268448","TIME_SYSTEM":"UTC","MEAN_MOTION_DOT":"0.00025099","ELEMENT_SET_NO":"999","OBJECT_NAME":"STARLINK-2351","TLE_LINE1":"1 47891U 21021AH  23115.13421607  .00025099  00000-0  16972-2 0  9993","MEAN_MOTION":"15.06415020","FILE":"3894092","INCLINATION":"53.0533","OBJECT_ID":"2021-021AH","RCS_SIZE":"LARGE","OBJECT_TYPE":"PAYLOAD","GP_ID":"230741549","MEAN_MOTION_DDOT":"0.0000000000000","PERIAPSIS":"546.497","LAUNCH_DATE":"2021-03-14","ARG_OF_PERICENTER":"88.2526","COUNTRY_CODE":"US","REF_FRAME":"TEME","DECAY_DATE":null,"CENTER_NAME":"EARTH","TLE_LINE2":"2 47891  53.0533 313.2541 0000968  88.2526 271.8573 15.06415020118022","MEAN_ELEMENT_THEORY":"SGP4","EPHEMERIS_TYPE":"0","CLASSIFICATION_TYPE":"U","SITE":"AFETR","ECCENTRICITY":"0.00009680","BSTAR":"0.00169720000000","REV_AT_EPOCH":"11802","NORAD_CAT_ID":"47891"},{"MEAN_MOTION":"15.17263622","TLE_LINE1":"1 47892U 21021AJ  23115.44369116  .00030589  00000-0  15270-2 0  9994","ELEMENT_SET_NO":"999","OBJECT_NAME":"STARLINK-2352","FILE":"3894092","APOAPSIS":"514.938","PERIOD":"94.908","SEMIMAJOR_AXIS":"6892.252","MEAN_ANOMALY":"256.3929","RA_OF_ASC_NODE":"280.0552","MEAN_MOTION_DOT":"0.00030589","TIME_SYSTEM":"UTC","EPOCH":"2023-04-25T10:38:54.916224","SITE":"AFETR","CLASSIFICATION_TYPE":"U","EPHEMERIS_TYPE":"0","MEAN_ELEMENT_THEORY":"SGP4","CENTER_NAME":"EARTH","TLE_LINE2":"2 47892  53.0532 280.0552 0001192 103.7198 256.3929 15.17263622118364","REF_FRAME":"TEME","DECAY_DATE":null,"COUNTRY_CODE":"US","NORAD_CAT_ID":"47892","REV_AT_EPOCH":"11836","ECCENTRICITY":"0.00011920","BSTAR":"0.00152700000000","MEAN_MOTION_DDOT":"0.0000000000000","GP_ID":"230740297","OBJECT_TYPE":"PAYLOAD","RCS_SIZE":"LARGE","OBJECT_ID":"2021-021AJ","INCLINATION":"53.0532","ARG_OF_PERICENTER":"103.7198","LAUNCH_DATE":"2021-03-14","PERIAPSIS":"513.295"},{"BSTAR":"0.00070150000000","ECCENTRICITY":"0.00012140","REV_AT_EPOCH":"11796","NORAD_CAT_ID":"47894","COUNTRY_CODE":"US","DECAY_DATE":null,"REF_FRAME":"TEME","CENTER_NAME":"EARTH","TLE_LINE2":"2 47894  53.0538 302.8508 0001214  98.8453 261.2674 15.06407586117963","EPHEMERIS_TYPE":"0","CLASSIFICATION_TYPE":"U","MEAN_ELEMENT_THEORY":"SGP4","SITE":"AFETR","PERIAPSIS":"546.350","LAUNCH_DATE":"2021-03-14","ARG_OF_PERICENTER":"98.8453","INCLINATION":"53.0538","OBJECT_ID":"2021-021AL","RCS_SIZE":"LARGE","OBJECT_TYPE":"PAYLOAD","GP_ID":"230741048","MEAN_MOTION_DDOT":"0.0000000000000","FILE":"3894092","OBJECT_NAME":"STARLINK-2354","ELEMENT_SET_NO":"999","TLE_LINE1":"1 47894U 21021AL  23115.22357877  .00010185  00000-0  70150-3 0  9992","MEAN_MOTION":"15.06407586","EPOCH":"2023-04-25T05:21:57.205728","TIME_SYSTEM":"UTC","MEAN_MOTION_DOT":"0.00010185","RA_OF_ASC_NODE":"302.8508","MEAN_ANOMALY":"261.2674","SEMIMAJOR_AXIS":"6925.325","PERIOD":"95.592","APOAPSIS":"548.031"}];
